OBJECT_NAME,OBJECT_ID,EPOCH,MEAN_MOTION,ECCENTRICITY,INCLINATION,RA_OF_ASC_NODE,ARG_OF_PERICENTER,MEAN_ANOMALY,EPHEMERIS_TYPE,CLASSIFICATION_TYPE,NORAD_CAT_ID,ELEMENT_SET_NO,REV_AT_EPOCH,BSTAR,MEAN_MOTION_DOT,MEAN_MOTION_DDOT
SL-8 R/B,1985-006B,2026-06-13T13:24:05.148288,14.37833691,.00187697,74.0459,84.7416,332.4456,200.5991,0,U,15483,999,16780,.775668E-4,.208E-5,0
SL-12 R/B(2),1985-042D,2026-06-13T15:41:29.693760,14.22005250,.0036135,71.1080,244.9813,333.1239,133.4416,0,U,15772,999,12803,.4431676E-4,.51E-6,0
SL-14 R/B,1985-069B,2026-06-13T14:26:17.673216,14.86513072,.00175492,82.5268,294.7382,231.7727,128.1911,0,U,15945,999,18708,.43673631E-4,.412E-5,0
SL-16 R/B,1985-097B,2026-06-13T15:45:26.732160,14.16610949,.00054483,71.0035,298.5112,118.7499,252.3495,0,U,16182,999,10082,-.10000524E-3,-.247E-5,0
SL-14 R/B,1986-006B,2026-06-13T11:38:24.063072,14.86942320,.00752023,82.5261,169.5973,315.9682,43.5560,0,U,16496,999,16344,.57927996E-4,.571E-5,0
COSMOS 1743,1986-034A,2026-06-13T12:09:06.961248,15.66631400,.00037679,82.5268,332.6452,288.5070,71.5780,0,U,16719,999,19521,.43582448E-3,.45802E-3,0
SL-14 R/B,1986-046B,2026-06-13T13:59:54.119328,14.85668884,.00215657,82.4815,349.5813,271.2293,88.6452,0,U,16792,999,14064,.40916718E-4,.38E-5,0
SL-14 R/B,1986-055B,2026-06-13T09:28:03.916992,14.85720728,.00194092,82.5206,36.6988,20.0163,152.7226,0,U,16882,999,13357,.38992746E-4,.364E-5,0
AJISAI (EGS),1986-061A,2026-06-13T14:38:54.082752,12.44516813,.00112319,50.0064,158.3938,171.5245,295.4825,0,U,16908,999,47994,.4732484E-5,-.97E-6,0
SL-14 R/B,1987-024B,2026-06-13T15:34:48.481536,14.86211203,.00169542,82.5281,2.5765,305.9154,54.0488,0,U,17567,999,10238,.3927847E-4,.37E-5,0
COSMOS 1833,1987-027A,2026-06-13T08:33:16.204320,14.13047129,.00227034,70.9171,124.9202,61.5157,298.8246,0,U,17589,999,2383,.19282265E-3,.313E-5,0
SL-16 R/B,1987-027B,2026-06-13T14:47:30.797952,14.17172608,.00063843,71.0034,74.3533,316.4587,43.6033,0,U,17590,999,2893,-.45660317E-4,-.14E-5,0
SL-14 R/B,1987-038B,2026-06-13T15:01:35.097888,14.85443284,.00185682,82.5010,206.4266,203.2385,156.7994,0,U,17912,999,9347,.33686003E-4,.315E-5,0
COSMOS 1844,1987-041A,2026-06-13T12:01:01.515072,14.14568796,.00330696,70.8974,192.0836,240.9035,118.8775,0,U,17973,999,1713,-.58438192E-4,-.161E-5,0
SL-14 R/B,1987-055B,2026-06-13T07:36:15.201504,14.85708638,.00219192,82.4995,258.8774,59.7592,300.5791,0,U,18153,999,8413,.3905947E-4,.365E-5,0
COSMOS 1867,1987-060A,2026-06-13T08:39:27.597312,14.31515412,.00164423,65.0115,38.7751,282.1220,77.8022,0,U,18187,999,3363,.26489457E-4,-.3E-6,0
SL-14 R/B,1988-001B,2026-06-13T14:06:42.595200,14.85607348,.00164802,82.5131,105.1596,282.6077,77.3296,0,U,18749,999,5626,.4285525E-4,.395E-5,0
COSMOS 1933,1988-020A,2026-06-13T11:30:35.817408,15.18690741,.00030646,82.5115,156.1064,199.9562,160.1553,0,U,18958,999,6476,.15345971E-3,.3212E-4,0
SL-3 R/B,1988-032B,2026-06-13T13:24:20.130912,15.20815584,.00236785,97.5248,147.6030,258.6242,101.2334,0,U,19046,999,6667,.1998995E-3,.4369E-4,0
SL-16 R/B,1988-039B,2026-06-13T14:20:45.608640,14.19629506,.00224775,71.0141,225.7482,198.4699,161.5613,0,U,19120,999,97199,-.33505357E-4,-.119E-5,0
COSMOS 1953,1988-050A,2026-06-13T10:07:01.798176,15.29928036,.00118702,82.5085,61.8316,137.7682,222.4474,0,U,19210,999,5241,.25214637E-3,.7352E-4,0
SL-8 R/B,1988-053B,2026-06-13T15:48:47.666592,14.38966216,.00191702,74.0479,295.5611,92.1943,279.0969,0,U,19257,999,99040,.58874425E-4,.156E-5,0
COSMOS 1975,1988-093A,2026-06-13T14:54:18.473760,15.29284563,.00109557,82.5195,21.2896,183.7904,176.3255,0,U,19573,999,3406,.26080203E-3,.7452E-4,0
SL-14 R/B,1988-093B,2026-06-13T12:03:22.082688,14.85739314,.00221706,82.5309,312.1044,81.8067,345.3899,0,U,19574,999,1524,.45899229E-4,.425E-5,0
SL-16 R/B,1988-102B,2026-06-13T14:45:18.520416,14.16165328,.00159554,71.0002,309.6562,230.4284,129.5431,0,U,19650,999,94047,-.98693314E-4,-.243E-5,0
INTERCOSMOS 24,1989-080A,2026-06-13T14:25:55.864992,12.59656625,.11883954,82.6068,41.9781,70.2184,302.2969,0,U,20261,999,67887,.25241367E-3,.888E-5,0
SL-14 R/B,1989-080C,2026-06-13T13:29:56.532768,12.50568822,.12289359,82.5929,111.6363,325.6972,27.0317,0,U,20262,999,67213,.95071809E-4,.318E-5,0
DELTA 1 R/B,1989-089B,2026-06-13T13:31:44.338368,14.50729331,.00689127,97.0637,356.7018,178.3878,181.7555,0,U,20323,999,90963,.89381218E-4,.327E-5,0
ARIANE 40 R/B,1990-005H,2026-06-13T15:21:15.613056,14.39925635,.00087943,98.2960,222.3659,276.7182,83.3005,0,U,20443,999,90661,.82962066E-4,.219E-5,0
DELTA 2 R/B(1),1990-008B,2026-06-13T13:30:16.931808,15.68288843,.00656147,35.6007,259.8964,79.8508,280.9625,0,U,20453,999,94113,.66502689E-3,.88162E-3,0
