SL-8 R/B                
1 15483U 85006B   26164.55839292  .00000208  00000+0  77567-4 0  9997
2 15483  74.0459  84.7416 0018769 332.4456 200.5991 14.37833691167803
SL-12 R/B(2)            
1 15772U 85042D   26164.65381590  .00000051  00000+0  44317-4 0  9995
2 15772  71.1080 244.9813 0036135 333.1239 133.4416 14.22005250128031
SL-14 R/B               
1 15945U 85069B   26164.60159344  .00000412  00000+0  43674-4 0  9997
2 15945  82.5268 294.7382 0017549 231.7727 128.1911 14.86513072187081
SL-16 R/B               
1 16182U 85097B   26164.65655940 -.00000247  00000+0 -10001-3 0  9995
2 16182  71.0035 298.5112 0005448 118.7499 252.3495 14.16610949100826
SL-14 R/B               
1 16496U 86006B   26164.48500073  .00000571  00000+0  57928-4 0  9999
2 16496  82.5261 169.5973 0075202 315.9682  43.5560 14.86942320163442
COSMOS 1743             
1 16719U 86034A   26164.50633057  .00045802  00000+0  43582-3 0  9996
2 16719  82.5268 332.6452 0003767 288.5070  71.5780 15.66631400195213
SL-14 R/B               
1 16792U 86046B   26164.58326527  .00000380  00000+0  40917-4 0  9991
2 16792  82.4815 349.5813 0021565 271.2293  88.6452 14.85668884140649
SL-14 R/B               
1 16882U 86055B   26164.39448978  .00000364  00000+0  38993-4 0  9998
2 16882  82.5206  36.6988 0019409  20.0163 152.7226 14.85720728133573
AJISAI (EGS)            
1 16908U 86061A   26164.61034818 -.00000097  00000+0  47325-5 0  9997
2 16908  50.0064 158.3938 0011231 171.5245 295.4825 12.44516813479944
SL-14 R/B               
1 17567U 87024B   26164.64917224  .00000370  00000+0  39278-4 0  9993
2 17567  82.5281   2.5765 0016954 305.9154  54.0488 14.86211203102382
COSMOS 1833             
1 17589U 87027A   26164.35643755  .00000313  00000+0  19282-3 0  9992
2 17589  70.9171 124.9202 0022703  61.5157 298.8246 14.13047129 23833
SL-16 R/B               
1 17590U 87027B   26164.61632868 -.00000140  00000+0 -45660-4 0  9996
2 17590  71.0034  74.3533 0006384 316.4587  43.6033 14.17172608 28937
SL-14 R/B               
1 17912U 87038B   26164.62610067  .00000315  00000+0  33686-4 0  9991
2 17912  82.5010 206.4266 0018568 203.2385 156.7994 14.85443284 93472
COSMOS 1844             
1 17973U 87041A   26164.50071198 -.00000161  00000+0 -58438-4 0  9998
2 17973  70.8974 192.0836 0033069 240.9035 118.8775 14.14568796 17137
SL-14 R/B               
1 18153U 87055B   26164.31684261  .00000365  00000+0  39059-4 0  9996
2 18153  82.4995 258.8774 0021919  59.7592 300.5791 14.85708638 84138
COSMOS 1867             
1 18187U 87060A   26164.36073608 -.00000030  00000+0  26489-4 0  9994
2 18187  65.0115  38.7751 0016442 282.1220  77.8022 14.31515412 33638
SL-14 R/B               
1 18749U 88001B   26164.58799300  .00000395  00000+0  42855-4 0  9990
2 18749  82.5131 105.1596 0016480 282.6077  77.3296 14.85607348 56268
COSMOS 1933             
1 18958U 88020A   26164.47958122  .00003212  00000+0  15346-3 0  9995
2 18958  82.5115 156.1064 0003064 199.9562 160.1553 15.18690741 64768
SL-3 R/B                
1 19046U 88032B   26164.55856633  .00004369  00000+0  19990-3 0  9993
2 19046  97.5248 147.6030 0023678 258.6242 101.2334 15.20815584 66671
SL-16 R/B               
1 19120U 88039B   26164.59775010 -.00000119  00000+0 -33505-4 0  9996
2 19120  71.0141 225.7482 0022477 198.4699 161.5613 14.19629506971998
COSMOS 1953             
1 19210U 88050A   26164.42154859  .00007352  00000+0  25215-3 0  9995
2 19210  82.5085  61.8316 0011870 137.7682 222.4474 15.29928036 52411
SL-8 R/B                
1 19257U 88053B   26164.65888503  .00000156  00000+0  58874-4 0  9997
2 19257  74.0479 295.5611 0019170  92.1943 279.0969 14.38966216990402
COSMOS 1975             
1 19573U 88093A   26164.62104715  .00007452  00000+0  26080-3 0  9994
2 19573  82.5195  21.2896 0010955 183.7904 176.3255 15.29284563 34064
SL-14 R/B               
1 19574U 88093B   26164.50233892  .00000425  00000+0  45899-4 0  9994
2 19574  82.5309 312.1044 0022170  81.8067 345.3899 14.85739314 15240
SL-16 R/B               
1 19650U 88102B   26164.61479769 -.00000243  00000+0 -98693-4 0  9997
2 19650  71.0002 309.6562 0015955 230.4284 129.5431 14.16165328940478
INTERCOSMOS 24          
1 20261U 89080A   26164.60134103  .00000888  00000+0  25241-3 0  9993
2 20261  82.6068  41.9781 1188395  70.2184 302.2969 12.59656625678874
SL-14 R/B               
1 20262U 89080C   26164.56245987  .00000318  00000+0  95072-4 0  9990
2 20262  82.5929 111.6363 1228935 325.6972  27.0317 12.50568822672132
DELTA 1 R/B             
1 20323U 89089B   26164.56370762  .00000327  00000+0  89381-4 0  9993
2 20323  97.0637 356.7018 0068912 178.3878 181.7555 14.50729331909636
ARIANE 40 R/B           
1 20443U 90005H   26164.63976404  .00000219  00000+0  82962-4 0  9997
2 20443  98.2960 222.3659 0008794 276.7182  83.3005 14.39925635906617
DELTA 2 R/B(1)          
1 20453U 90008B   26164.56269597  .00088162  00000+0  66503-3 0  9996
2 20453  35.6007 259.8964 0065614  79.8508 280.9625 15.68288843941132
